{
  "type": "FeatureCollection",
  "features": [
    {
      "type": "Feature",
      "properties": {
        "norad_id": 67124,
        "name": "STARLINK-36195",
        "group": "last-30-days",
        "lat": 17.08157174278211,
        "lon": -86.5885054588386,
        "alt_km": 292.19998194381515,
        "timestamp": "2025-12-22T22:44:19.654761+00:00",
        "meta_object_name": "STARLINK-36195",
        "meta_object_id": "2025-299Y",
        "meta_epoch": "2025-12-22T14:00:01.999872",
        "meta_mean_motion": 15.94240035,
        "meta_eccentricity": 0.00024057,
        "meta_inclination": 42.9989,
        "meta_ra_of_asc_node": 256.4266,
        "meta_arg_of_pericenter": 265.5473,
        "meta_mean_anomaly": 188.632,
        "meta_ephemeris_type": 0,
        "meta_classification_type": "U",
        "meta_norad_cat_id": 67124,
        "meta_element_set_no": 999,
        "meta_rev_at_epoch": 239,
        "meta_bstar": -0.0045998879,
        "meta_mean_motion_dot": -0.01771504,
        "meta_mean_motion_ddot": 0.00088152533,
        "tle_line1": "1 67124U 25299Y   25356.58335648 -.01771504  88153-3 -45999-2 0  9993",
        "tle_line2": "2 67124  42.9989 256.4266 0002405 265.5473 188.6320 15.94240035  2392"
      },
      "geometry": {
        "type": "Point",
        "coordinates": [
          -86.5885054588386,
          17.08157174278211
        ]
      }
    },
    {
      "type": "Feature",
      "properties": {
        "norad_id": 67125,
        "name": "STARLINK-36219",
        "group": "last-30-days",
        "lat": 18.028623666630235,
        "lon": -85.40366308899387,
        "alt_km": 291.56069459135597,
        "timestamp": "2025-12-22T22:44:19.654772+00:00",
        "meta_object_name": "STARLINK-36219",
        "meta_object_id": "2025-299Z",
        "meta_epoch": "2025-12-22T14:00:01.999872",
        "meta_mean_motion": 15.94245258,
        "meta_eccentricity": 0.00020526,
        "meta_inclination": 42.9985,
        "meta_ra_of_asc_node": 256.4224,
        "meta_arg_of_pericenter": 278.8472,
        "meta_mean_anomaly": 176.7981,
        "meta_ephemeris_type": 0,
        "meta_classification_type": "U",
        "meta_norad_cat_id": 67125,
        "meta_element_set_no": 999,
        "meta_rev_at_epoch": 239,
        "meta_bstar": -0.0045733147,
        "meta_mean_motion_dot": -0.01761748,
        "meta_mean_motion_ddot": 0.00087259512,
        "tle_line1": "1 67125U 25299Z   25356.58335648 -.01761748  87260-3 -45733-2 0  9997",
        "tle_line2": "2 67125  42.9985 256.4224 0002052 278.8472 176.7981 15.94245258  2390"
      },
      "geometry": {
        "type": "Point",
        "coordinates": [
          -85.40366308899387,
          18.028623666630235
        ]
      }
    },
    {
      "type": "Feature",
      "properties": {
        "norad_id": 67126,
        "name": "STARLINK-36223",
        "group": "last-30-days",
        "lat": 19.191476335371796,
        "lon": -83.91789090888129,
        "alt_km": 291.57129125549,
        "timestamp": "2025-12-22T22:44:19.654782+00:00",
        "meta_object_name": "STARLINK-36223",
        "meta_object_id": "2025-299AA",
        "meta_epoch": "2025-12-22T14:00:01.999872",
        "meta_mean_motion": 15.94253268,
        "meta_eccentricity": 0.00014316,
        "meta_inclination": 42.9986,
        "meta_ra_of_asc_node": 256.4179,
        "meta_arg_of_pericenter": 264.9732,
        "meta_mean_anomaly": 192.4986,
        "meta_ephemeris_type": 0,
        "meta_classification_type": "U",
        "meta_norad_cat_id": 67126,
        "meta_element_set_no": 999,
        "meta_rev_at_epoch": 239,
        "meta_bstar": -0.0045680051,
        "meta_mean_motion_dot": -0.01760282,
        "meta_mean_motion_ddot": 0.000871325,
        "tle_line1": "1 67126U 25299AA  25356.58335648 -.01760282  87133-3 -45680-2 0  9990",
        "tle_line2": "2 67126  42.9986 256.4179 0001431 264.9732 192.4986 15.94253268  2396"
      },
      "geometry": {
        "type": "Point",
        "coordinates": [
          -83.91789090888129,
          19.191476335371796
        ]
      }
    },
    {
      "type": "Feature",
      "properties": {
        "norad_id": 67127,
        "name": "STARLINK-36164",
        "group": "last-30-days",
        "lat": 20.22508634559109,
        "lon": -82.56621634029301,
        "alt_km": 291.6692608385538,
        "timestamp": "2025-12-22T22:44:19.654792+00:00",
        "meta_object_name": "STARLINK-36164",
        "meta_object_id": "2025-299AB",
        "meta_epoch": "2025-12-22T14:00:01.999872",
        "meta_mean_motion": 15.94233866,
        "meta_eccentricity": 0.00022534,
        "meta_inclination": 42.9986,
        "meta_ra_of_asc_node": 256.4136,
        "meta_arg_of_pericenter": 267.1901,
        "meta_mean_anomaly": 191.9262,
        "meta_ephemeris_type": 0,
        "meta_classification_type": "U",
        "meta_norad_cat_id": 67127,
        "meta_element_set_no": 999,
        "meta_rev_at_epoch": 239,
        "meta_bstar": -0.0044953936,
        "meta_mean_motion_dot": -0.01731151,
        "meta_mean_motion_ddot": 0.00084465391,
        "tle_line1": "1 67127U 25299AB  25356.58335648 -.01731151  84465-3 -44954-2 0  9992",
        "tle_line2": "2 67127  42.9986 256.4136 0002253 267.1901 191.9262 15.94233866  2399"
      },
      "geometry": {
        "type": "Point",
        "coordinates": [
          -82.56621634029301,
          20.22508634559109
        ]
      }
    },
    {
      "type": "Feature",
      "properties": {
        "norad_id": 67128,
        "name": "STARLINK-35685",
        "group": "last-30-days",
        "lat": 23.253842296072943,
        "lon": -78.40647198182225,
        "alt_km": 291.45768572360885,
        "timestamp": "2025-12-22T22:44:19.654802+00:00",
        "meta_object_name": "STARLINK-35685",
        "meta_object_id": "2025-299AC",
        "meta_epoch": "2025-12-22T14:00:01.999872",
        "meta_mean_motion": 15.94259773,
        "meta_eccentricity": 0.00023724,
        "meta_inclination": 42.9983,
        "meta_ra_of_asc_node": 256.401,
        "meta_arg_of_pericenter": 266.4243,
        "meta_mean_anomaly": 197.6068,
        "meta_ephemeris_type": 0,
        "meta_classification_type": "U",
        "meta_norad_cat_id": 67128,
        "meta_element_set_no": 999,
        "meta_rev_at_epoch": 239,
        "meta_bstar": -0.0046846728,
        "meta_mean_motion_dot": -0.01805595,
        "meta_mean_motion_ddot": 0.00091342537,
        "tle_line1": "1 67128U 25299AC  25356.58335648 -.01805595  91343-3 -46847-2 0  9993",
        "tle_line2": "2 67128  42.9983 256.4010 0002372 266.4243 197.6068 15.94259773  2393"
      },
      "geometry": {
        "type": "Point",
        "coordinates": [
          -78.40647198182225,
          23.253842296072943
        ]
      }
    },
    {
      "type": "Feature",
      "properties": {
        "norad_id": 67129,
        "name": "STARLINK-36214",
        "group": "last-30-days",
        "lat": 21.446897016201927,
        "lon": -80.92626270888341,
        "alt_km": 290.82430999637563,
        "timestamp": "2025-12-22T22:44:19.654812+00:00",
        "meta_object_name": "STARLINK-36214",
        "meta_object_id": "2025-299AD",
        "meta_epoch": "2025-12-22T14:00:01.999872",
        "meta_mean_motion": 15.94228566,
        "meta_eccentricity": 0.00015083,
        "meta_inclination": 42.9985,
        "meta_ra_of_asc_node": 256.4086,
        "meta_arg_of_pericenter": 285.7291,
        "meta_mean_anomaly": 175.3551,
        "meta_ephemeris_type": 0,
        "meta_classification_type": "U",
        "meta_norad_cat_id": 67129,
        "meta_element_set_no": 999,
        "meta_rev_at_epoch": 239,
        "meta_bstar": -0.0044631391,
        "meta_mean_motion_dot": -0.01718167,
        "meta_mean_motion_ddot": 0.00083292606,
        "tle_line1": "1 67129U 25299AD  25356.58335648 -.01718167  83293-3 -44631-2 0  9996",
        "tle_line2": "2 67129  42.9985 256.4086 0001508 285.7291 175.3551 15.94228566  2392"
      },
      "geometry": {
        "type": "Point",
        "coordinates": [
          -80.92626270888341,
          21.446897016201927
        ]
      }
    },
    {
      "type": "Feature",
      "properties": {
        "norad_id": 67130,
        "name": "STARLINK-36194",
        "group": "last-30-days",
        "lat": 26.506872988965227,
        "lon": -73.52090814979297,
        "alt_km": 290.86723256395453,
        "timestamp": "2025-12-22T22:44:19.654824+00:00",
        "meta_object_name": "STARLINK-36194",
        "meta_object_id": "2025-299AE",
        "meta_epoch": "2025-12-22T14:00:01.999872",
        "meta_mean_motion": 15.94203889,
        "meta_eccentricity": 0.00018106,
        "meta_inclination": 42.9984,
        "meta_ra_of_asc_node": 256.3887,
        "meta_arg_of_pericenter": 275.8501,
        "meta_mean_anomaly": 193.785,
        "meta_ephemeris_type": 0,
        "meta_classification_type": "U",
        "meta_norad_cat_id": 67130,
        "meta_element_set_no": 999,
        "meta_rev_at_epoch": 239,
        "meta_bstar": -0.0048477786,
        "meta_mean_motion_dot": -0.01861918,
        "meta_mean_motion_ddot": 0.00096653173,
        "tle_line1": "1 67130U 25299AE  25356.58335648 -.01861918  96653-3 -48478-2 0  9998",
        "tle_line2": "2 67130  42.9984 256.3887 0001810 275.8501 193.7850 15.94203889  2398"
      },
      "geometry": {
        "type": "Point",
        "coordinates": [
          -73.52090814979297,
          26.506872988965227
        ]
      }
    }
  ]
}